[{"OBJECT_NAME":"GLOBALSTAR M089","OBJECT_ID":"2011-033F","EPOCH":"2026-03-09T05:59:16.284192","MEAN_MOTION":12.62264756,"ECCENTRICITY":1.98e-5,"INCLINATION":51.9921,"RA_OF_ASC_NODE":94.1005,"ARG_OF_PERICENTER":165.4705,"MEAN_ANOMALY":273.7867,"EPHEMERIS_TYPE":0,"CLASSIFICATION_TYPE":"U","NORAD_CAT_ID":37744,"ELEMENT_SET_NO":999,"REV_AT_EPOCH":67816,"BSTAR":2.0006498e-5,"MEAN_MOTION_DOT":-1.0e-6,"MEAN_MOTION_DDOT":0},{"OBJECT_NAME":"COSMOS 252 DEB","OBJECT_ID":"1968-097D","EPOCH":"2026-03-09T22:40:32.342592","MEAN_MOTION":13.80993653,"ECCENTRICITY":0.06218464,"INCLINATION":62.2838,"RA_OF_ASC_NODE":22.8932,"ARG_OF_PERICENTER":123.8434,"MEAN_ANOMALY":242.3394,"EPHEMERIS_TYPE":0,"CLASSIFICATION_TYPE":"U","NORAD_CAT_ID":3551,"ELEMENT_SET_NO":999,"REV_AT_EPOCH":79484,"BSTAR":0.00067344756,"MEAN_MOTION_DOT":3.094e-5,"MEAN_MOTION_DDOT":0}]
